48076,ONEWEB-0108,2021,109.63,148.0,+,87.89,Active,1,LEO,Russia,UK,Commercial,Communications,Soyuz,1 48076U 21025AL  24101.11511591  .00000366  00000+0  96774-3 0  9997,2 48076  87.8894 119.0957 0001998  84.1954 275.9403 13.13471652148894,13.13471652,0.0001998,LEO
48077,ONEWEB-0169,2021,109.63,148.0,+,87.89,Active,1,LEO,Russia,UK,Commercial,Communications,Soyuz,1 48077U 21025AM  24101.29921430 -.00000203  00000+0 -58990-3 0  9994,2 48077  87.8897 119.0668 0002035  84.2018 275.9344 13.13471074148805,13.13471074,0.0002035,LEO
48210,ONEWEB-0176,2021,109.55,148.0,+,87.89,Active,1,LEO,Russia,UK,Commercial,Communications,Soyuz,1 48210U 21031A   24101.38850303 -.00000012  00000+0 -67773-4 0  9998,2 48210  87.8906  88.4527 0001933  87.2162 272.9189 13.14505493144799,13.14505493,0.0001933,LEO
48211,ONEWEB-0184,2021,109.55,148.0,+,87.89,Active,1,LEO,Russia,UK,Commercial,Communications,Soyuz,1 48211U 21031B   24101.36154166 -.00000057  00000+0 -18840-3 0  9990,2 48211  87.8902  88.4439 0001328 119.2976 240.8286 13.14503292143476,13.14503292,0.0001328,LEO
48212,ONEWEB-0179,2021,109.55,148.0,+,87.89,Active,1,LEO,Russia,UK,Commercial,Communications,Soyuz,1 48212U 21031C   24100.95081496  .00000227  00000+0  57806-3 0  9992,2 48212  87.8904  88.5267 0002046  89.0684 271.0681 13.14500436143468,13.14500436,0.0002046,LEO
48213,ONEWEB-0180,2021,109.55,148.0,+,87.89,Active,1,LEO,Russia,UK,Commercial,Communications,Soyuz,1 48213U 21031D   24101.36469466 -.00000433  00000+0 -12026-2 0  9991,2 48213  87.8901  88.4434 0002096  91.8666 268.2703 13.14501846143400,13.14501846,0.0002096,LEO
48214,ONEWEB-0218,2021,109.55,148.0,+,87.89,Active,1,LEO,Russia,UK,Commercial,Communications,Soyuz,1 48214U 21031E   24100.70185932 -.00000006  00000+0 -50104-4 0  9999,2 48214  87.8899  88.5781 0001713 123.8590 236.2703 13.14503176143470,13.14503176,0.0001713,LEO
48215,ONEWEB-0209,2021,109.55,148.0,+,87.89,Active,1,LEO,Russia,UK,Commercial,Communications,Soyuz,1 48215U 21031F   24100.91908639 -.00000807  00000+0 -22111-2 0  9994,2 48215  87.8905  88.5671 0002140  89.6882 270.4493 13.14504785143502,13.14504785,0.000214,LEO
